[{"OBJECT_NAME":"ONEWEB-0270","OBJECT_ID":"2021-060X","EPOCH":"2026-03-09T22:21:20.551104","MEAN_MOTION":13.16593502,"ECCENTRICITY":0.00019648,"INCLINATION":87.9002,"RA_OF_ASC_NODE":248.5241,"ARG_OF_PERICENTER":102.1216,"MEAN_ANOMALY":258.0136,"EPHEMERIS_TYPE":0,"CLASSIFICATION_TYPE":"U","NORAD_CAT_ID":48988,"ELEMENT_SET_NO":999,"REV_AT_EPOCH":22660,"BSTAR":0.00010760647,"MEAN_MOTION_DOT":5.4e-7,"MEAN_MOTION_DDOT":0},{"OBJECT_NAME":"COSMOS 480","OBJECT_ID":"1972-019A","EPOCH":"2026-03-09T20:57:12.098016","MEAN_MOTION":13.19934651,"ECCENTRICITY":0.00174145,"INCLINATION":82.9802,"RA_OF_ASC_NODE":0.7732,"ARG_OF_PERICENTER":291.1619,"MEAN_ANOMALY":130.3273,"EPHEMERIS_TYPE":0,"CLASSIFICATION_TYPE":"U","NORAD_CAT_ID":5905,"ELEMENT_SET_NO":999,"REV_AT_EPOCH":59900,"BSTAR":5.9158614e-5,"MEAN_MOTION_DOT":3.7e-7,"MEAN_MOTION_DDOT":0}]
